[{"CCSDS_OMM_VERS":"2.0","COMMENT":"GENERATED VIA SPACE-TRACK.ORG API","CREATION_DATE":"2021-10-02T19:12:03","ORIGINATOR":"18 SPCS","OBJECT_NAME":"TBA - TO BE ASSIGNED","OBJECT_ID":"","CENTER_NAME":"EARTH","REF_FRAME":"TEME","TIME_SYSTEM":"UTC","MEAN_ELEMENT_THEORY":"SGP4","EPOCH":"2021-10-02T00:54:22.450176","MEAN_MOTION":"14.45398047","ECCENTRICITY":"0.00661910","INCLINATION":"98.4245","RA_OF_ASC_NODE":"189.7417","ARG_OF_PERICENTER":"199.7798","MEAN_ANOMALY":"160.0825","EPHEMERIS_TYPE":"0","CLASSIFICATION_TYPE":"U","NORAD_CAT_ID":"81661","ELEMENT_SET_NO":"999","REV_AT_EPOCH":"31253","BSTAR":"0.00078933000000","MEAN_MOTION_DOT":"0.00002807","MEAN_MOTION_DDOT":"0.0000000000000","SEMIMAJOR_AXIS":"7118.856","PERIOD":"99.627","APOAPSIS":"787.841","PERIAPSIS":"693.600","OBJECT_TYPE":"TBA","RCS_SIZE":null,"COUNTRY_CODE":null,"LAUNCH_DATE":null,"SITE":null,"DECAY_DATE":null,"FILE":"3140729","GP_ID":"185993393","TLE_LINE0":"0 TBA - TO BE ASSIGNED","TLE_LINE1":"1 81661U          21275.03775984 +.00002807 +00000+0 +78933-3 0  9991","TLE_LINE2":"2 81661  98.4245 189.7417 0066191 199.7798 160.0825 14.45398047312537"},{"CCSDS_OMM_VERS":"2.0","COMMENT":"GENERATED VIA SPACE-TRACK.ORG API","CREATION_DATE":"2021-09-27T17:57:00","ORIGINATOR":"18 SPCS","OBJECT_NAME":"TBA - TO BE ASSIGNED","OBJECT_ID":"1976-077","CENTER_NAME":"EARTH","REF_FRAME":"TEME","TIME_SYSTEM":"UTC","MEAN_ELEMENT_THEORY":"SGP4","EPOCH":"2021-09-27T14:02:58.079616","MEAN_MOTION":"13.41373818","ECCENTRICITY":"0.03795400","INCLINATION":"102.1456","RA_OF_ASC_NODE":"182.5710","ARG_OF_PERICENTER":"185.3781","MEAN_ANOMALY":"300.9887","EPHEMERIS_TYPE":"0","CLASSIFICATION_TYPE":"U","NORAD_CAT_ID":"81652","ELEMENT_SET_NO":"999","REV_AT_EPOCH":"37236","BSTAR":"0.00032406000000","MEAN_MOTION_DOT":"0.00000215","MEAN_MOTION_DDOT":"0.0000000000000","SEMIMAJOR_AXIS":"7482.303","PERIOD":"107.353","APOAPSIS":"1388.151","PERIAPSIS":"820.185","OBJECT_TYPE":"TBA","RCS_SIZE":null,"COUNTRY_CODE":null,"LAUNCH_DATE":null,"SITE":null,"DECAY_DATE":null,"FILE":"3130989","GP_ID":"185613156","TLE_LINE0":"0 TBA - TO BE ASSIGNED","TLE_LINE1":"1 81652U 76077    21270.58539444 +.00000215 +00000+0 +32406-3 0  9998","TLE_LINE2":"2 81652 102.1456 182.5710 0379540 185.3781 300.9887 13.41373818372363"},{"CCSDS_OMM_VERS":"2.0","COMMENT":"GENERATED VIA SPACE-TRACK.ORG API","CREATION_DATE":"2021-09-30T20:16:03","ORIGINATOR":"18 SPCS","OBJECT_NAME":"TBA - TO BE ASSIGNED","OBJECT_ID":"","CENTER_NAME":"EARTH","REF_FRAME":"TEME","TIME_SYSTEM":"UTC","MEAN_ELEMENT_THEORY":"SGP4","EPOCH":"2021-09-30T14:21:49.079808","MEAN_MOTION":"12.55440117","ECCENTRICITY":"0.09951800","INCLINATION":"65.8282","RA_OF_ASC_NODE":"23.3769","ARG_OF_PERICENTER":"338.2582","MEAN_ANOMALY":"17.8806","EPHEMERIS_TYPE":"0","CLASSIFICATION_TYPE":"U","NORAD_CAT_ID":"81640","ELEMENT_SET_NO":"999","REV_AT_EPOCH":"31738","BSTAR":"0.00007546200000","MEAN_MOTION_DOT":"0.00000024","MEAN_MOTION_DDOT":"0.0000000000000","SEMIMAJOR_AXIS":"7819.960","PERIOD":"114.701","APOAPSIS":"2220.051","PERIAPSIS":"663.598","OBJECT_TYPE":"TBA","RCS_SIZE":null,"COUNTRY_CODE":null,"LAUNCH_DATE":null,"SITE":null,"DECAY_DATE":null,"FILE":"3136900","GP_ID":"185837711","TLE_LINE0":"0 TBA - TO BE ASSIGNED","TLE_LINE1":"1 81640U          21273.59848472 +.00000024 +00000+0 +75462-4 0  9994","TLE_LINE2":"2 81640  65.8282  23.3769 0995180 338.2582  17.8806 12.55440117317387"},{"CCSDS_OMM_VERS":"2.0","COMMENT":"GENERATED VIA SPACE-TRACK.ORG API","CREATION_DATE":"2021-10-02T19:12:03","ORIGINATOR":"18 SPCS","OBJECT_NAME":"TBA - TO BE ASSIGNED","OBJECT_ID":"","CENTER_NAME":"EARTH","REF_FRAME":"TEME","TIME_SYSTEM":"UTC","MEAN_ELEMENT_THEORY":"SGP4","EPOCH":"2021-10-02T12:50:29.719680","MEAN_MOTION":"14.86888665","ECCENTRICITY":"0.04470850","INCLINATION":"51.6863","RA_OF_ASC_NODE":"108.9004","ARG_OF_PERICENTER":"323.4385","MEAN_ANOMALY":"33.6809","EPHEMERIS_TYPE":"0","CLASSIFICATION_TYPE":"U","NORAD_CAT_ID":"81634","ELEMENT_SET_NO":"999","REV_AT_EPOCH":"30317","BSTAR":"0.00906820000000","MEAN_MOTION_DOT":"0.00594897","MEAN_MOTION_DDOT":"0.0000704410000","SEMIMAJOR_AXIS":"6985.801","PERIOD":"96.847","APOAPSIS":"919.991","PERIAPSIS":"295.341","OBJECT_TYPE":"TBA","RCS_SIZE":null,"COUNTRY_CODE":null,"LAUNCH_DATE":null,"SITE":null,"DECAY_DATE":null,"FILE":"3140729","GP_ID":"185993578","TLE_LINE0":"0 TBA - TO BE ASSIGNED","TLE_LINE1":"1 81634U          21275.53506620 +.00594897 +70441-4 +90682-2 0  9995","TLE_LINE2":"2 81634  51.6863 108.9004 0447085 323.4385  33.6809 14.86888665303174"},{"CCSDS_OMM_VERS":"2.0","COMMENT":"GENERATED VIA SPACE-TRACK.ORG API","CREATION_DATE":"2021-10-02T19:12:03","ORIGINATOR":"18 SPCS","OBJECT_NAME":"TBA - TO BE ASSIGNED","OBJECT_ID":"","CENTER_NAME":"EARTH","REF_FRAME":"TEME","TIME_SYSTEM":"UTC","MEAN_ELEMENT_THEORY":"SGP4","EPOCH":"2021-10-02T13:14:26.215584","MEAN_MOTION":"14.57661236","ECCENTRICITY":"0.00138570","INCLINATION":"71.0061","RA_OF_ASC_NODE":"76.4665","ARG_OF_PERICENTER":"208.6958","MEAN_ANOMALY":"151.3426","EPHEMERIS_TYPE":"0","CLASSIFICATION_TYPE":"U","NORAD_CAT_ID":"81626","ELEMENT_SET_NO":"999","REV_AT_EPOCH":"40406","BSTAR":"0.00286940000000","MEAN_MOTION_DOT":"0.00013084","MEAN_MOTION_DDOT":"0.0000000000000","SEMIMAJOR_AXIS":"7078.873","PERIOD":"98.788","APOAPSIS":"710.547","PERIAPSIS":"690.929","OBJECT_TYPE":"TBA","RCS_SIZE":null,"COUNTRY_CODE":null,"LAUNCH_DATE":null,"SITE":null,"DECAY_DATE":null,"FILE":"3140729","GP_ID":"185993297","TLE_LINE0":"0 TBA - TO BE ASSIGNED","TLE_LINE1":"1 81626U          21275.55169231 +.00013084 +00000+0 +28694-2 0  9998","TLE_LINE2":"2 81626  71.0061  76.4665 0013857 208.6958 151.3426 14.57661236404063"},{"CCSDS_OMM_VERS":"2.0","COMMENT":"GENERATED VIA SPACE-TRACK.ORG API","CREATION_DATE":"2021-10-02T19:12:03","ORIGINATOR":"18 SPCS","OBJECT_NAME":"TBA - TO BE ASSIGNED","OBJECT_ID":"","CENTER_NAME":"EARTH","REF_FRAME":"TEME","TIME_SYSTEM":"UTC","MEAN_ELEMENT_THEORY":"SGP4","EPOCH":"2021-10-02T11:38:24.241920","MEAN_MOTION":"14.51469151","ECCENTRICITY":"0.00862410","INCLINATION":"66.9915","RA_OF_ASC_NODE":"355.6985","ARG_OF_PERICENTER":"52.1075","MEAN_ANOMALY":"308.7795","EPHEMERIS_TYPE":"0","CLASSIFICATION_TYPE":"U","NORAD_CAT_ID":"81624","ELEMENT_SET_NO":"999","REV_AT_EPOCH":"41626","BSTAR":"0.00015203000000","MEAN_MOTION_DOT":"0.00000541","MEAN_MOTION_DDOT":"0.0000000000000","SEMIMAJOR_AXIS":"7098.991","PERIOD":"99.210","APOAPSIS":"782.079","PERIAPSIS":"659.634","OBJECT_TYPE":"TBA","RCS_SIZE":null,"COUNTRY_CODE":null,"LAUNCH_DATE":null,"SITE":null,"DECAY_DATE":null,"FILE":"3140729","GP_ID":"185993386","TLE_LINE0":"0 TBA - TO BE ASSIGNED","TLE_LINE1":"1 81624U          21275.48500280 +.00000541 +00000+0 +15203-3 0  9998","TLE_LINE2":"2 81624  66.9915 355.6985 0086241  52.1075 308.7795 14.51469151416266"},{"CCSDS_OMM_VERS":"2.0","COMMENT":"GENERATED VIA SPACE-TRACK.ORG API","CREATION_DATE":"2021-10-02T19:12:03","ORIGINATOR":"18 SPCS","OBJECT_NAME":"TBA - TO BE ASSIGNED","OBJECT_ID":"1973-086","CENTER_NAME":"EARTH","REF_FRAME":"TEME","TIME_SYSTEM":"UTC","MEAN_ELEMENT_THEORY":"SGP4","EPOCH":"2021-10-02T07:34:06.684096","MEAN_MOTION":"12.56203192","ECCENTRICITY":"0.00446460","INCLINATION":"101.3321","RA_OF_ASC_NODE":"135.4730","ARG_OF_PERICENTER":"19.1984","MEAN_ANOMALY":"341.0762","EPHEMERIS_TYPE":"0","CLASSIFICATION_TYPE":"U","NORAD_CAT_ID":"81617","ELEMENT_SET_NO":"999","REV_AT_EPOCH":"36060","BSTAR":"0.00059589000000","MEAN_MOTION_DOT":"0.00000056","MEAN_MOTION_DDOT":"0.0000000000000","SEMIMAJOR_AXIS":"7816.792","PERIOD":"114.631","APOAPSIS":"1473.556","PERIAPSIS":"1403.759","OBJECT_TYPE":"TBA","RCS_SIZE":null,"COUNTRY_CODE":null,"LAUNCH_DATE":null,"SITE":null,"DECAY_DATE":null,"FILE":"3140729","GP_ID":"185993544","TLE_LINE0":"0 TBA - TO BE ASSIGNED","TLE_LINE1":"1 81617U 73086    21275.31535514 +.00000056 +00000+0 +59589-3 0  9990","TLE_LINE2":"2 81617 101.3321 135.4730 0044646  19.1984 341.0762 12.56203192360604"},{"CCSDS_OMM_VERS":"2.0","COMMENT":"GENERATED VIA SPACE-TRACK.ORG API","CREATION_DATE":"2021-10-02T19:12:03","ORIGINATOR":"18 SPCS","OBJECT_NAME":"TBA - TO BE ASSIGNED","OBJECT_ID":"1992-021","CENTER_NAME":"EARTH","REF_FRAME":"TEME","TIME_SYSTEM":"UTC","MEAN_ELEMENT_THEORY":"SGP4","EPOCH":"2021-10-02T05:17:21.985440","MEAN_MOTION":"13.23183128","ECCENTRICITY":"0.08161050","INCLINATION":"65.8344","RA_OF_ASC_NODE":"356.7837","ARG_OF_PERICENTER":"118.7644","MEAN_ANOMALY":"249.7850","EPHEMERIS_TYPE":"0","CLASSIFICATION_TYPE":"U","NORAD_CAT_ID":"81615","ELEMENT_SET_NO":"999","REV_AT_EPOCH":"37943","BSTAR":"0.00015351000000","MEAN_MOTION_DOT":"0.00000321","MEAN_MOTION_DDOT":"0.0000000000000","SEMIMAJOR_AXIS":"7550.723","PERIOD":"108.828","APOAPSIS":"1788.806","PERIAPSIS":"556.370","OBJECT_TYPE":"TBA","RCS_SIZE":null,"COUNTRY_CODE":null,"LAUNCH_DATE":null,"SITE":null,"DECAY_DATE":null,"FILE":"3140729","GP_ID":"185993455","TLE_LINE0":"0 TBA - TO BE ASSIGNED","TLE_LINE1":"1 81615U 92021    21275.22039335 +.00000321 +00000+0 +15351-3 0  9992","TLE_LINE2":"2 81615  65.8344 356.7837 0816105 118.7644 249.7850 13.23183128379437"}]